ORBCOMM FM37            
1 33064U 08031E   24298.55444366  .00005468  00000+0  77976-3 0  9991
2 33064  48.4410  22.4400 0004770  79.2258 294.8402 14.77885509879177
ORBCOMM FM40            
1 33065U 08031F   24298.51915545  .00006786  00000+0  92314-3 0  9997
2 33065  48.4431  10.1752 0005929  90.0247 283.6721 14.79584759879233
VESSELSAT 1             
1 37840U 11058C   24298.51651384  .00000575  00000+0  16944-3 0  9998
2 37840  19.9617  79.8231 0013745 114.0891 246.0953 14.11241888672979
ORBCOMM FM109           
1 40086U 14040A   24298.56056142  .00002716  00000+0  62999-3 0  9994
2 40086  47.0040  48.4975 0002783 292.7379  67.3212 14.57392658546681
ORBCOMM FM107           
1 40087U 14040B   24298.52794933  .00002684  00000+0  62368-3 0  9992
2 40087  47.0054  49.6614 0002326 270.8825  89.1794 14.57340141546751
ORBCOMM FM106           
1 40088U 14040C   24298.27387749  .00003722  00000+0  67248-3 0  9994
2 40088  47.0591 251.5124 0017341  49.7356 310.5048 14.68059045548794
ORBCOMM FM111           
1 40089U 14040D   24298.56237068  .00008241  00000+0  10041-2 0  9994
2 40089  47.0012 130.9996 0032000 148.5525 211.7292 14.83578057555208
ORBCOMM FM104           
1 40090U 14040E   24298.53733410  .00002895  00000+0  69126-3 0  9993
2 40090  47.0043  80.4496 0017482 210.5186 149.4683 14.55789330546273
